ATLAS CENTAUR R/B       
1 06155U 72065B   26043.55813523  .00001276  00000+0  17718-3 0  9996
2 06155  35.0013  93.0230 0033505 159.6914 200.5126 14.77611599837542
SL-8 R/B                
1 08459U 75112B   26043.46159734  .00000200  00000+0  74434-4 0  9993
2 08459  74.0590  65.3227 0015268 167.7537 192.3991 14.38190749628248
SL-3 R/B                
1 10114U 77057B   26043.78544345  .00012888  00000+0  27716-3 0  9990
2 10114  97.5733 214.6299 0007739  21.1766 338.9801 15.44763248664489
SEASAT 1                
1 10967U 78064A   26043.80145889  .00000272  00000+0  11458-3 0  9998
2 10967 108.0160  73.2687 0001653 291.2929  68.8040 14.46140030502919
SL-14 R/B               
1 11267U 79011B   26043.69725112  .00000613  00000+0  57968-4 0  9991
2 11267  82.5249 120.2857 0017174 137.3177 222.9380 14.91877561525055
SL-8 R/B                
1 11574U 79089B   26043.70663492  .00000279  00000+0  92467-4 0  9992
2 11574  74.0697 137.2895 0016695 312.9921  46.9835 14.42335194432507
SL-14 R/B               
1 11672U 80005B   26043.82808372  .00000720  00000+0  70428-4 0  9996
2 11672  82.5175 330.8125 0014192 244.1892 115.7864 14.90897826472780
SL-8 R/B                
1 12139U 81003B   26043.82664542  .00016841  00000+0  44535-3 0  9993
2 12139  82.9397 312.9964 0262751 265.3763  91.7417 15.10075001310929
SL-3 R/B                
1 12465U 81046B   26043.79533052  .00013532  00000+0  32168-3 0  9992
2 12465  81.2342 319.6151 0020787 103.9994 256.3561 15.41294409434597
SL-3 R/B                
1 12904U 81103B   26043.77686169  .00005487  00000+0  24531-3 0  9995
2 12904  81.1558 242.6547 0013569  13.7703 346.3896 15.21067514969444
SL-3 R/B                
1 13068U 82013B   26043.79561794  .00005071  00000+0  22136-3 0  9994
2 13068  81.1745 189.9362 0021761 263.5045  96.3710 15.21737061400560
SL-3 R/B                
1 13154U 82039B   26043.74110434  .00002399  00000+0  14493-3 0  9991
2 13154  81.1605 244.7199 0030072  46.0389 314.3309 15.09939120377879
