CCSDS_OMM_VERS = 2.0
CREATION_DATE  = 
ORIGINATOR     = 

OBJECT_NAME    = ATLAS CENTAUR R/B
OBJECT_ID      = 1972-065B
CENTER_NAME    = EARTH
REF_FRAME      = TEME
TIME_SYSTEM    = UTC
MEAN_ELEMENT_THEORY = SGP/SGP4

EPOCH          = 2026-02-12T13:23:42.883872
MEAN_MOTION    = 14.77611599
ECCENTRICITY   = .0033505
INCLINATION    = 35.0013
RA_OF_ASC_NODE = 93.0230
ARG_OF_PERICENTER = 159.6914
MEAN_ANOMALY   = 200.5126

EPHEMERIS_TYPE = 0
CLASSIFICATION_TYPE = U
NORAD_CAT_ID   = 6155
ELEMENT_SET_NO = 999
REV_AT_EPOCH   = 83754
BSTAR          = .17718E-3
MEAN_MOTION_DOT = .1276E-4
MEAN_MOTION_DDOT = 0

CCSDS_OMM_VERS = 2.0
CREATION_DATE  = 
ORIGINATOR     = 

OBJECT_NAME    = SL-8 R/B
OBJECT_ID      = 1975-112B
CENTER_NAME    = EARTH
REF_FRAME      = TEME
TIME_SYSTEM    = UTC
MEAN_ELEMENT_THEORY = SGP/SGP4

EPOCH          = 2026-02-12T11:04:42.010176
MEAN_MOTION    = 14.38190749
ECCENTRICITY   = .0015268
INCLINATION    = 74.0590
RA_OF_ASC_NODE = 65.3227
ARG_OF_PERICENTER = 167.7537
MEAN_ANOMALY   = 192.3991

EPHEMERIS_TYPE = 0
CLASSIFICATION_TYPE = U
NORAD_CAT_ID   = 8459
ELEMENT_SET_NO = 999
REV_AT_EPOCH   = 62824
BSTAR          = .74434091E-4
MEAN_MOTION_DOT = .2E-5
MEAN_MOTION_DDOT = 0

CCSDS_OMM_VERS = 2.0
CREATION_DATE  = 
ORIGINATOR     = 

OBJECT_NAME    = SL-3 R/B
OBJECT_ID      = 1977-057B
CENTER_NAME    = EARTH
REF_FRAME      = TEME
TIME_SYSTEM    = UTC
MEAN_ELEMENT_THEORY = SGP/SGP4

EPOCH          = 2026-02-12T18:51:02.314080
MEAN_MOTION    = 15.44763248
ECCENTRICITY   = .0007739
INCLINATION    = 97.5733
RA_OF_ASC_NODE = 214.6299
ARG_OF_PERICENTER = 21.1766
MEAN_ANOMALY   = 338.9801

EPHEMERIS_TYPE = 0
CLASSIFICATION_TYPE = U
NORAD_CAT_ID   = 10114
ELEMENT_SET_NO = 999
REV_AT_EPOCH   = 66448
BSTAR          = .27716E-3
MEAN_MOTION_DOT = .12888E-3
MEAN_MOTION_DDOT = 0

CCSDS_OMM_VERS = 2.0
CREATION_DATE  = 
ORIGINATOR     = 

OBJECT_NAME    = SEASAT 1
OBJECT_ID      = 1978-064A
CENTER_NAME    = EARTH
REF_FRAME      = TEME
TIME_SYSTEM    = UTC
MEAN_ELEMENT_THEORY = SGP/SGP4

EPOCH          = 2026-02-12T19:14:06.048096
MEAN_MOTION    = 14.46140030
ECCENTRICITY   = .0001653
INCLINATION    = 108.0160
RA_OF_ASC_NODE = 73.2687
ARG_OF_PERICENTER = 291.2929
MEAN_ANOMALY   = 68.8040

EPHEMERIS_TYPE = 0
CLASSIFICATION_TYPE = U
NORAD_CAT_ID   = 10967
ELEMENT_SET_NO = 999
REV_AT_EPOCH   = 50291
BSTAR          = .11458E-3
MEAN_MOTION_DOT = .272E-5
MEAN_MOTION_DDOT = 0

CCSDS_OMM_VERS = 2.0
CREATION_DATE  = 
ORIGINATOR     = 

OBJECT_NAME    = SL-14 R/B
OBJECT_ID      = 1979-011B
CENTER_NAME    = EARTH
REF_FRAME      = TEME
TIME_SYSTEM    = UTC
MEAN_ELEMENT_THEORY = SGP/SGP4

EPOCH          = 2026-02-12T16:44:02.496768
MEAN_MOTION    = 14.91877561
ECCENTRICITY   = .0017174
INCLINATION    = 82.5249
RA_OF_ASC_NODE = 120.2857
ARG_OF_PERICENTER = 137.3177
MEAN_ANOMALY   = 222.9380

EPHEMERIS_TYPE = 0
CLASSIFICATION_TYPE = U
NORAD_CAT_ID   = 11267
ELEMENT_SET_NO = 999
REV_AT_EPOCH   = 52505
BSTAR          = .57968E-4
MEAN_MOTION_DOT = .613E-5
MEAN_MOTION_DDOT = 0

CCSDS_OMM_VERS = 2.0
CREATION_DATE  = 
ORIGINATOR     = 

OBJECT_NAME    = SL-8 R/B
OBJECT_ID      = 1979-089B
CENTER_NAME    = EARTH
REF_FRAME      = TEME
TIME_SYSTEM    = UTC
MEAN_ELEMENT_THEORY = SGP/SGP4

EPOCH          = 2026-02-12T16:57:33.257088
MEAN_MOTION    = 14.42335194
ECCENTRICITY   = .0016695
INCLINATION    = 74.0697
RA_OF_ASC_NODE = 137.2895
ARG_OF_PERICENTER = 312.9921
MEAN_ANOMALY   = 46.9835

EPHEMERIS_TYPE = 0
CLASSIFICATION_TYPE = U
NORAD_CAT_ID   = 11574
ELEMENT_SET_NO = 999
REV_AT_EPOCH   = 43250
BSTAR          = .92467E-4
MEAN_MOTION_DOT = .279E-5
MEAN_MOTION_DDOT = 0

CCSDS_OMM_VERS = 2.0
CREATION_DATE  = 
ORIGINATOR     = 

OBJECT_NAME    = SL-14 R/B
OBJECT_ID      = 1980-005B
CENTER_NAME    = EARTH
REF_FRAME      = TEME
TIME_SYSTEM    = UTC
MEAN_ELEMENT_THEORY = SGP/SGP4

EPOCH          = 2026-02-12T19:52:26.433408
MEAN_MOTION    = 14.90897826
ECCENTRICITY   = .0014192
INCLINATION    = 82.5175
RA_OF_ASC_NODE = 330.8125
ARG_OF_PERICENTER = 244.1892
MEAN_ANOMALY   = 115.7864

EPHEMERIS_TYPE = 0
CLASSIFICATION_TYPE = U
NORAD_CAT_ID   = 11672
ELEMENT_SET_NO = 999
REV_AT_EPOCH   = 47278
BSTAR          = .70428E-4
MEAN_MOTION_DOT = .72E-5
MEAN_MOTION_DDOT = 0

CCSDS_OMM_VERS = 2.0
CREATION_DATE  = 
ORIGINATOR     = 

OBJECT_NAME    = SL-8 R/B
OBJECT_ID      = 1981-003B
CENTER_NAME    = EARTH
REF_FRAME      = TEME
TIME_SYSTEM    = UTC
MEAN_ELEMENT_THEORY = SGP/SGP4

EPOCH          = 2026-02-12T19:50:22.164288
MEAN_MOTION    = 15.10075001
ECCENTRICITY   = .0262751
INCLINATION    = 82.9397
RA_OF_ASC_NODE = 312.9964
ARG_OF_PERICENTER = 265.3763
MEAN_ANOMALY   = 91.7417

EPHEMERIS_TYPE = 0
CLASSIFICATION_TYPE = U
NORAD_CAT_ID   = 12139
ELEMENT_SET_NO = 999
REV_AT_EPOCH   = 31092
BSTAR          = .44535E-3
MEAN_MOTION_DOT = .16841E-3
MEAN_MOTION_DDOT = 0

CCSDS_OMM_VERS = 2.0
CREATION_DATE  = 
ORIGINATOR     = 

OBJECT_NAME    = SL-3 R/B
OBJECT_ID      = 1981-046B
CENTER_NAME    = EARTH
REF_FRAME      = TEME
TIME_SYSTEM    = UTC
MEAN_ELEMENT_THEORY = SGP/SGP4

EPOCH          = 2026-02-12T19:05:16.556928
MEAN_MOTION    = 15.41294409
ECCENTRICITY   = .0020787
INCLINATION    = 81.2342
RA_OF_ASC_NODE = 319.6151
ARG_OF_PERICENTER = 103.9994
MEAN_ANOMALY   = 256.3561

EPHEMERIS_TYPE = 0
CLASSIFICATION_TYPE = U
NORAD_CAT_ID   = 12465
ELEMENT_SET_NO = 999
REV_AT_EPOCH   = 43459
BSTAR          = .32168E-3
MEAN_MOTION_DOT = .13532E-3
MEAN_MOTION_DDOT = 0

CCSDS_OMM_VERS = 2.0
CREATION_DATE  = 
ORIGINATOR     = 

OBJECT_NAME    = SL-3 R/B
OBJECT_ID      = 1981-103B
CENTER_NAME    = EARTH
REF_FRAME      = TEME
TIME_SYSTEM    = UTC
MEAN_ELEMENT_THEORY = SGP/SGP4

EPOCH          = 2026-02-12T18:38:40.850016
MEAN_MOTION    = 15.21067514
ECCENTRICITY   = .0013569
INCLINATION    = 81.1558
RA_OF_ASC_NODE = 242.6547
ARG_OF_PERICENTER = 13.7703
MEAN_ANOMALY   = 346.3896

EPHEMERIS_TYPE = 0
CLASSIFICATION_TYPE = U
NORAD_CAT_ID   = 12904
ELEMENT_SET_NO = 999
REV_AT_EPOCH   = 96944
BSTAR          = .24531E-3
MEAN_MOTION_DOT = .5487E-4
MEAN_MOTION_DDOT = 0

CCSDS_OMM_VERS = 2.0
CREATION_DATE  = 
ORIGINATOR     = 

OBJECT_NAME    = SL-3 R/B
OBJECT_ID      = 1982-013B
CENTER_NAME    = EARTH
REF_FRAME      = TEME
TIME_SYSTEM    = UTC
MEAN_ELEMENT_THEORY = SGP/SGP4

EPOCH          = 2026-02-12T19:05:41.390016
MEAN_MOTION    = 15.21737061
ECCENTRICITY   = .0021761
INCLINATION    = 81.1745
RA_OF_ASC_NODE = 189.9362
ARG_OF_PERICENTER = 263.5045
MEAN_ANOMALY   = 96.3710

EPHEMERIS_TYPE = 0
CLASSIFICATION_TYPE = U
NORAD_CAT_ID   = 13068
ELEMENT_SET_NO = 999
REV_AT_EPOCH   = 40056
BSTAR          = .22136E-3
MEAN_MOTION_DOT = .5071E-4
MEAN_MOTION_DDOT = 0

CCSDS_OMM_VERS = 2.0
CREATION_DATE  = 
ORIGINATOR     = 

OBJECT_NAME    = SL-3 R/B
OBJECT_ID      = 1982-039B
CENTER_NAME    = EARTH
REF_FRAME      = TEME
TIME_SYSTEM    = UTC
MEAN_ELEMENT_THEORY = SGP/SGP4

EPOCH          = 2026-02-12T17:47:11.414976
MEAN_MOTION    = 15.09939120
ECCENTRICITY   = .0030072
INCLINATION    = 81.1605
RA_OF_ASC_NODE = 244.7199
ARG_OF_PERICENTER = 46.0389
MEAN_ANOMALY   = 314.3309

EPHEMERIS_TYPE = 0
CLASSIFICATION_TYPE = U
NORAD_CAT_ID   = 13154
ELEMENT_SET_NO = 999
REV_AT_EPOCH   = 37787
BSTAR          = .14493E-3
MEAN_MOTION_DOT = .2399E-4
MEAN_MOTION_DDOT = 0

